GLOBALSTAR M035 [-]     
1 25851U 99037A   23357.85774755 -.00000074  00000+0 -40208-3 0  9996
2 25851  51.9907 182.1642 0013644 178.1987 286.6694 11.04528144 36445
GLOBALSTAR M032 [-]     
1 25852U 99037B   23357.40364090 -.00000024  00000+0  13570-2 0  9990
2 25852  51.9980  45.7595 0008277 333.7728  26.2652 11.19047349 74135
GLOBALSTAR M051 [-]     
1 25853U 99037C   23357.87400270 -.00000049  00000+0  56824-3 0  9990
2 25853  51.9795 266.7301 0001768 353.5582   6.5205 11.42194470 70535
GLOBALSTAR M030 [-]     
1 25854U 99037D   23357.63278107 -.00000031  00000+0  93547-3 0  9991
2 25854  51.9879 107.8465 0005300 145.3106 214.8057 11.55086024 87468
GLOBALSTAR M048 [-]     
1 25872U 99041A   23357.83800507 -.00000039  00000+0  82885-3 0  9994
2 25872  51.9330 180.9142 0012508 333.0959 130.4155 11.33842402 63578
GLOBALSTAR M026 [-]     
1 25873U 99041B   23357.31047793 -.00000090  00000+0 -96563-3 0  9994
2 25873  52.0032 307.0579 0001937  64.9221 105.1280 11.06833284 88485
GLOBALSTAR M043 [-]     
1 25874U 99041C   23357.17964385 -.00000090  00000+0 -65588-3 0  9997
2 25874  51.9405 268.5210 0013597 105.6087  43.8622 11.25673978 61863
GLOBALSTAR M028 [-]     
1 25875U 99041D   23357.33928268 -.00000015  00000+0  55423-3 0  9999
2 25875  51.9648   8.7096 0063373 334.9416  24.8374 12.50547127122382
